[{"OBJECT_NAME":"POLYITAN-1","OBJECT_ID":"2014-033AJ","EPOCH":"2026-03-09T22:27:50.258304","MEAN_MOTION":15.29568085,"ECCENTRICITY":0.00093607,"INCLINATION":98.1053,"RA_OF_ASC_NODE":86.0432,"ARG_OF_PERICENTER":127.248,"MEAN_ANOMALY":232.9614,"EPHEMERIS_TYPE":0,"CLASSIFICATION_TYPE":"U","NORAD_CAT_ID":40042,"ELEMENT_SET_NO":999,"REV_AT_EPOCH":63840,"BSTAR":0.00083772474,"MEAN_MOTION_DOT":0.00024003,"MEAN_MOTION_DDOT":0},{"OBJECT_NAME":"STARLINK-32638","OBJECT_ID":"2024-249R","EPOCH":"2026-03-09T03:06:16.758432","MEAN_MOTION":15.27592589,"ECCENTRICITY":0.00017334,"INCLINATION":43.0007,"RA_OF_ASC_NODE":328.8669,"ARG_OF_PERICENTER":264.6868,"MEAN_ANOMALY":95.3785,"EPHEMERIS_TYPE":0,"CLASSIFICATION_TYPE":"U","NORAD_CAT_ID":62424,"ELEMENT_SET_NO":999,"REV_AT_EPOCH":6759,"BSTAR":0.0012226824,"MEAN_MOTION_DOT":0.0003355,"MEAN_MOTION_DDOT":0}]
